[
    {
        "Altitude(m)": 705082.208792033,
        "Argument of Periapsis(deg)": 0.0034170363559881197,
        "Eccentricity": 0.0,
        "Inclination(deg)": 45.0,
        "Latitude(deg)": -9.193659562440406,
        "Longitude(deg)": -114.47443591567249,
        "Mean Anomaly(deg)": -12.903635005755744,
        "RAAN(deg)": 354.99677441756256,
        "Satellite Name": "Constellation 1 1583",
        "Satellite Number": 1583,
        "Semi-Major Axis(m)": 7083131.272910544,
        "Time(s)": 57
    },
    {
        "Altitude(m)": 705072.4928985969,
        "Argument of Periapsis(deg)": 0.003476984362233526,
        "Eccentricity": 0.0,
        "Inclination(deg)": 45.0,
        "Latitude(deg)": -9.151032634931756,
        "Longitude(deg)": -114.43459499521565,
        "Mean Anomaly(deg)": -12.842933865505909,
        "RAAN(deg)": 354.996717828397,
        "Satellite Name": "Constellation 1 1583",
        "Satellite Number": 1583,
        "Semi-Major Axis(m)": 7083131.272910544,
        "Time(s)": 58
    },
    {
        "Altitude(m)": 705062.7942308678,
        "Argument of Periapsis(deg)": 0.003536932368478932,
        "Eccentricity": 0.0,
        "Inclination(deg)": 45.0,
        "Latitude(deg)": -9.108400194433717,
        "Longitude(deg)": -114.39476461056589,
        "Mean Anomaly(deg)": -12.782232725255971,
        "RAAN(deg)": 354.9966612392314,
        "Satellite Name": "Constellation 1 1583",
        "Satellite Number": 1583,
        "Semi-Major Axis(m)": 7083131.272910544,
        "Time(s)": 59
    },
    {
        "Altitude(m)": 705053.112814234,
        "Argument of Periapsis(deg)": 0.003596880374724337,
        "Eccentricity": 0.0,
        "Inclination(deg)": 45.0,
        "Latitude(deg)": -9.065762267889035,
        "Longitude(deg)": -114.354944374952,
        "Mean Anomaly(deg)": -12.721531585006083,
        "RAAN(deg)": 354.9966046500658,
        "Satellite Name": "Constellation 1 1583",
        "Satellite Number": 1583,
        "Semi-Major Axis(m)": 7083131.272910544,
        "Time(s)": 60
    },
    {
        "Altitude(m)": 705043.4486740187,
        "Argument of Periapsis(deg)": 0.0036568283809697427,
        "Eccentricity": 0.0,
        "Inclination(deg)": 45.0,
        "Latitude(deg)": -9.023118882220235,
        "Longitude(deg)": -114.31513440591465,
        "Mean Anomaly(deg)": -12.660830444756145,
        "RAAN(deg)": 354.9965480609003,
        "Satellite Name": "Constellation 1 1583",
        "Satellite Number": 1583,
        "Semi-Major Axis(m)": 7083131.272910544,
        "Time(s)": 61
    },
    {
        "Altitude(m)": 705033.8018354496,
        "Argument of Periapsis(deg)": 0.003716776387215149,
        "Eccentricity": 0.0,
        "Inclination(deg)": 45.0,
        "Latitude(deg)": -8.980470064330973,
        "Longitude(deg)": -114.27533465291883,
        "Mean Anomaly(deg)": -12.600129304506364,
        "RAAN(deg)": 354.99649147173466,
        "Satellite Name": "Constellation 1 1583",
        "Satellite Number": 1583,
        "Semi-Major Axis(m)": 7083131.272910544,
        "Time(s)": 62
    },
    {
        "Altitude(m)": 705024.1723236784,
        "Argument of Periapsis(deg)": 0.003776724393460554,
        "Eccentricity": 0.0,
        "Inclination(deg)": 45.0,
        "Latitude(deg)": -8.93781584110522,
        "Longitude(deg)": -114.23554506544987,
        "Mean Anomaly(deg)": -12.539428164256426,
        "RAAN(deg)": 354.99643488256913,
        "Satellite Name": "Constellation 1 1583",
        "Satellite Number": 1583,
        "Semi-Major Axis(m)": 7083131.272910544,
        "Time(s)": 63
    },
    {
        "Altitude(m)": 705014.5601637759,
        "Argument of Periapsis(deg)": 0.003836672399705959,
        "Eccentricity": 0.0,
        "Inclination(deg)": 45.0,
        "Latitude(deg)": -8.895156239408152,
        "Longitude(deg)": -114.19576559301427,
        "Mean Anomaly(deg)": -12.478727024006435,
        "RAAN(deg)": 354.99637829340355,
        "Satellite Name": "Constellation 1 1583",
        "Satellite Number": 1583,
        "Semi-Major Axis(m)": 7083131.272910544,
        "Time(s)": 64
    },
    {
        "Altitude(m)": 705004.9653807188,
        "Argument of Periapsis(deg)": 0.003896620405951365,
        "Eccentricity": 0.0,
        "Inclination(deg)": 45.0,
        "Latitude(deg)": -8.85249128608581,
        "Longitude(deg)": -114.15599618513913,
        "Mean Anomaly(deg)": -12.4180258837566,
        "RAAN(deg)": 354.996321704238,
        "Satellite Name": "Constellation 1 1583",
        "Satellite Number": 1583,
        "Semi-Major Axis(m)": 7083131.272910544,
        "Time(s)": 65
    },
    {
        "Altitude(m)": 704995.3879994146,
        "Argument of Periapsis(deg)": 0.003956568412196771,
        "Eccentricity": 0.0,
        "Inclination(deg)": 45.0,
        "Latitude(deg)": -8.809821007965153,
        "Longitude(deg)": -114.11623679137203,
        "Mean Anomaly(deg)": -12.357324743506766,
        "RAAN(deg)": 354.99626511507245,
        "Satellite Name": "Constellation 1 1583",
        "Satellite Number": 1583,
        "Semi-Major Axis(m)": 7083131.272910544,
        "Time(s)": 66
    },
    {
        "Altitude(m)": 704985.8280446824,
        "Argument of Periapsis(deg)": 0.004016516418442176,
        "Eccentricity": 0.0,
        "Inclination(deg)": 45.0,
        "Latitude(deg)": -8.767145431854056,
        "Longitude(deg)": -114.07648752937831,
        "Mean Anomaly(deg)": -12.296623603256727,
        "RAAN(deg)": 354.9962085259068,
        "Satellite Name": "Constellation 1 1583",
        "Satellite Number": 1583,
        "Semi-Major Axis(m)": 7083131.272910544,
        "Time(s)": 67
    },
    {
        "Altitude(m)": 704976.2855412548,
        "Argument of Periapsis(deg)": 0.004076464424687581,
        "Eccentricity": 0.0,
        "Inclination(deg)": 45.0,
        "Latitude(deg)": -8.724464584542444,
        "Longitude(deg)": -114.03674801255238,
        "Mean Anomaly(deg)": -12.235922463006892,
        "RAAN(deg)": 354.9961519367413,
        "Satellite Name": "Constellation 1 1583",
        "Satellite Number": 1583,
        "Semi-Major Axis(m)": 7083131.272910544,
        "Time(s)": 68
    },
    {
        "Altitude(m)": 704966.7605137898,
        "Argument of Periapsis(deg)": 0.004136412430932987,
        "Eccentricity": 0.0,
        "Inclination(deg)": 45.0,
        "Latitude(deg)": -8.681778492800767,
        "Longitude(deg)": -113.99701835860034,
        "Mean Anomaly(deg)": -12.175221322757055,
        "RAAN(deg)": 354.9960953475757,
        "Satellite Name": "Constellation 1 1583",
        "Satellite Number": 1583,
        "Semi-Major Axis(m)": 7083131.272910544,
        "Time(s)": 69
    },
    {
        "Altitude(m)": 704957.2529868531,
        "Argument of Periapsis(deg)": 0.004196360437178394,
        "Eccentricity": 0.0,
        "Inclination(deg)": 45.0,
        "Latitude(deg)": -8.63908718338109,
        "Longitude(deg)": -113.95729851715119,
        "Mean Anomaly(deg)": -12.11452018250712,
        "RAAN(deg)": 354.9960387584102,
        "Satellite Name": "Constellation 1 1583",
        "Satellite Number": 1583,
        "Semi-Major Axis(m)": 7083131.272910544,
        "Time(s)": 70
    },
    {
        "Altitude(m)": 704947.7629849367,
        "Argument of Periapsis(deg)": 0.004256308443423799,
        "Eccentricity": 0.0,
        "Inclination(deg)": 45.0,
        "Latitude(deg)": -8.596390683017159,
        "Longitude(deg)": -113.91758843785439,
        "Mean Anomaly(deg)": -12.053819042257128,
        "RAAN(deg)": 354.9959821692446,
        "Satellite Name": "Constellation 1 1583",
        "Satellite Number": 1583,
        "Semi-Major Axis(m)": 7083131.272910544,
        "Time(s)": 71
    },
    {
        "Altitude(m)": 704938.2905324406,
        "Argument of Periapsis(deg)": 0.004316256449669204,
        "Eccentricity": 0.0,
        "Inclination(deg)": 45.0,
        "Latitude(deg)": -8.55368901842436,
        "Longitude(deg)": -113.87788807037967,
        "Mean Anomaly(deg)": -11.993117902007347,
        "RAAN(deg)": 354.99592558007896,
        "Satellite Name": "Constellation 1 1583",
        "Satellite Number": 1583,
        "Semi-Major Axis(m)": 7083131.272910544,
        "Time(s)": 72
    },
    {
        "Altitude(m)": 704928.8356536842,
        "Argument of Periapsis(deg)": 0.00437620445591461,
        "Eccentricity": 0.0,
        "Inclination(deg)": 45.0,
        "Latitude(deg)": -8.51098221629951,
        "Longitude(deg)": -113.83819736441603,
        "Mean Anomaly(deg)": -11.932416761757409,
        "RAAN(deg)": 354.99586899091344,
        "Satellite Name": "Constellation 1 1583",
        "Satellite Number": 1583,
        "Semi-Major Axis(m)": 7083131.272910544,
        "Time(s)": 73
    },
    {
        "Altitude(m)": 704919.398372911,
        "Argument of Periapsis(deg)": 0.004436152462160016,
        "Eccentricity": 0.0,
        "Inclination(deg)": 45.0,
        "Latitude(deg)": -8.468270303321459,
        "Longitude(deg)": -113.79851643777018,
        "Mean Anomaly(deg)": -11.871715621507521,
        "RAAN(deg)": 354.99581240174786,
        "Satellite Name": "Constellation 1 1583",
        "Satellite Number": 1583,
        "Semi-Major Axis(m)": 7083131.272910544,
        "Time(s)": 74
    },
    {
        "Altitude(m)": 704909.9787142616,
        "Argument of Periapsis(deg)": 0.0044961004684054215,
        "Eccentricity": 0.0,
        "Inclination(deg)": 45.0,
        "Latitude(deg)": -8.425553306151125,
        "Longitude(deg)": -113.75884490397691,
        "Mean Anomaly(deg)": -11.811014481257583,
        "RAAN(deg)": 354.99575581258233,
        "Satellite Name": "Constellation 1 1583",
        "Satellite Number": 1583,
        "Semi-Major Axis(m)": 7083131.272910544,
        "Time(s)": 75
    }
]